0 FENGYUN 1C DEB
1 30062U 99025PP  13283.88784733  .00000238  00000-0  18011-3 0   539
2 30062 099.1204 290.3665 0050663 199.7236 278.7117 14.02997311345109
0 FENGYUN 1C DEB
1 30062U 99025PP  13286.00761503  .00000137  00000-0  11587-3 0   546
2 30062 099.1199 292.4904 0050768 193.7929 185.2806 14.02999057345409
0 FENGYUN 1C DEB
1 30062U 99025PP  13288.87032183  .00000155  00000-0  12759-3 0   551
2 30062 099.1194 295.3584 0050916 185.8442 244.2626 14.03001140345805
0 FENGYUN 1C DEB
1 30062U 99025PP  13291.51833616  .00000109  00000-0  98017-4 0   568
2 30062 099.1193 298.0107 0051081 178.5239 298.8614 14.03002650346172
0 FENGYUN 1C DEB
1 30062U 99025PP  13293.52426920  .00000156  00000-0  12791-3 0   574
2 30062 099.1193 300.0200 0051209 173.0271 350.3951 14.03003307346457
0 FENGYUN 1C DEB
1 30062U 99025PP  13295.85728203  .00000228  00000-0  17396-3 0   588
2 30062 099.1191 302.3571 0051326 166.7067 253.8736 14.03004024346784
